{"type": "FeatureCollection", "features": [ {"type": "Feature", "properties": {"norad_id": 66609, "name": "STARLINK-36034", "group": "last-30-days", "lat": -34.003644084606464, "lon": 73.16008421978687, "alt_km": 412.1040890364184, "timestamp": "2025-12-10T07:43:53.549877+00:00", "meta": {"OBJECT_NAME": "STARLINK-36034", "OBJECT_ID": "2025-270X", "EPOCH": "2025-12-09T20:00:01.999008", "MEAN_MOTION": 15.54437418, "ECCENTRICITY": 0.000161, "INCLINATION": 42.9999, "RA_OF_ASC_NODE": 209.6506, "ARG_OF_PERICENTER": 266.6222, "MEAN_ANOMALY": 111.8693, "EPHEMERIS_TYPE": 0, "CLASSIFICATION_TYPE": "U", "NORAD_CAT_ID": 66609, "ELEMENT_SET_NO": 999, "REV_AT_EPOCH": 377, "BSTAR": -0.034795, "MEAN_MOTION_DOT": -0.02088275, "MEAN_MOTION_DDOT": 0}, "tle": {"line1": "1 66609U 25270X   25343.83335647 -.02088275  00000+0 -34795-1 0  9991", "line2": "2 66609  42.9999 209.6506 0001610 266.6222 111.8693 15.54437418  3771"}}, "geometry": {"type": "Point", "coordinates": [73.16008421978687, -34.003644084606464]}}, {"type": "Feature", "properties": {"norad_id": 66610, "name": "STARLINK-35680", "group": "last-30-days", "lat": -34.886917466112884, "lon": 75.21550847323948, "alt_km": 412.24769756979003, "timestamp": "2025-12-10T07:43:53.549887+00:00", "meta": {"OBJECT_NAME": "STARLINK-35680", "OBJECT_ID": "2025-270Y", "EPOCH": "2025-12-09T20:00:01.999008", "MEAN_MOTION": 15.5444159, "ECCENTRICITY": 0.0001518, "INCLINATION": 42.9996, "RA_OF_ASC_NODE": 209.6456, "ARG_OF_PERICENTER": 271.2249, "MEAN_ANOMALY": 109.1798, "EPHEMERIS_TYPE": 0, "CLASSIFICATION_TYPE": "U", "NORAD_CAT_ID": 66610, "ELEMENT_SET_NO": 999, "REV_AT_EPOCH": 404, "BSTAR": -0.034839, "MEAN_MOTION_DOT": -0.02090822, "MEAN_MOTION_DDOT": 0}, "tle": {"line1": "1 66610U 25270Y   25343.83335647 -.02090822  00000+0 -34839-1 0  9993", "line2": "2 66610  42.9996 209.6456 0001518 271.2249 109.1798 15.54441590  4045"}}, "geometry": {"type": "Point", "coordinates": [75.21550847323948, -34.886917466112884]}}, {"type": "Feature", "properties": {"norad_id": 66611, "name": "STARLINK-35583", "group": "last-30-days", "lat": -35.735533689332094, "lon": 77.31562125587226, "alt_km": 412.2563714308444, "timestamp": "2025-12-10T07:43:53.549897+00:00", "meta": {"OBJECT_NAME": "STARLINK-35583", "OBJECT_ID": "2025-270Z", "EPOCH": "2025-12-09T20:00:01.999008", "MEAN_MOTION": 15.54441202, "ECCENTRICITY": 0.0001491, "INCLINATION": 42.9998, "RA_OF_ASC_NODE": 209.6404, "ARG_OF_PERICENTER": 269.6673, "MEAN_ANOMALY": 112.6545, "EPHEMERIS_TYPE": 0, "CLASSIFICATION_TYPE": "U", "NORAD_CAT_ID": 66611, "ELEMENT_SET_NO": 999, "REV_AT_EPOCH": 404, "BSTAR": -0.034824, "MEAN_MOTION_DOT": -0.02089964, "MEAN_MOTION_DDOT": 0}, "tle": {"line1": "1 66611U 25270Z   25343.83335647 -.02089964  00000+0 -34824-1 0  9993", "line2": "2 66611  42.9998 209.6404 0001491 269.6673 112.6545 15.54441202  4042"}}, "geometry": {"type": "Point", "coordinates": [77.31562125587226, -35.735533689332094]}}, {"type": "Feature", "properties": {"norad_id": 66612, "name": "STARLINK-36039", "group": "last-30-days", "lat": -36.545752712547234, "lon": 79.4578408596397, "alt_km": 412.2451804874054, "timestamp": "2025-12-10T07:43:53.549907+00:00", "meta": {"OBJECT_NAME": "STARLINK-36039", "OBJECT_ID": "2025-270AA", "EPOCH": "2025-12-09T20:00:01.999008", "MEAN_MOTION": 15.54435725, "ECCENTRICITY": 0.0001548, "INCLINATION": 42.9997, "RA_OF_ASC_NODE": 209.6348, "ARG_OF_PERICENTER": 269.938, "MEAN_ANOMALY": 114.3054, "EPHEMERIS_TYPE": 0, "CLASSIFICATION_TYPE": "U", "NORAD_CAT_ID": 66612, "ELEMENT_SET_NO": 999, "REV_AT_EPOCH": 393, "BSTAR": -0.034743, "MEAN_MOTION_DOT": -0.02085328, "MEAN_MOTION_DDOT": 0}, "tle": {"line1": "1 66612U 25270AA  25343.83335647 -.02085328  00000+0 -34743-1 0  9994", "line2": "2 66612  42.9997 209.6348 0001548 269.9380 114.3054 15.54435725  3934"}}, "geometry": {"type": "Point", "coordinates": [79.4578408596397, -36.545752712547234]}}, {"type": "Feature", "properties": {"norad_id": 66613, "name": "STARLINK-36037", "group": "last-30-days", "lat": -37.31700202936564, "lon": 81.64620300372054, "alt_km": 412.29976748721947, "timestamp": "2025-12-10T07:43:53.549917+00:00", "meta": {"OBJECT_NAME": "STARLINK-36037", "OBJECT_ID": "2025-270AB", "EPOCH": "2025-12-09T20:00:01.999008", "MEAN_MOTION": 15.54435406, "ECCENTRICITY": 0.0001519, "INCLINATION": 42.9998, "RA_OF_ASC_NODE": 209.6305, "ARG_OF_PERICENTER": 271.5708, "MEAN_ANOMALY": 114.59, "EPHEMERIS_TYPE": 0, "CLASSIFICATION_TYPE": "U", "NORAD_CAT_ID": 66613, "ELEMENT_SET_NO": 999, "REV_AT_EPOCH": 393, "BSTAR": -0.034735, "MEAN_MOTION_DOT": -0.02084828, "MEAN_MOTION_DDOT": 0}, "tle": {"line1": "1 66613U 25270AB  25343.83335647 -.02084828  00000+0 -34735-1 0  9990", "line2": "2 66613  42.9998 209.6305 0001519 271.5708 114.5900 15.54435406  3938"}}, "geometry": {"type": "Point", "coordinates": [81.64620300372054, -37.31700202936564]}}, {"type": "Feature", "properties": {"norad_id": 66614, "name": "STARLINK-36040", "group": "last-30-days", "lat": -38.73410814049643, "lon": 86.15674582892522, "alt_km": 412.30671636389616, "timestamp": "2025-12-10T07:43:53.549933+00:00", "meta": {"OBJECT_NAME": "STARLINK-36040", "OBJECT_ID": "2025-270AC", "EPOCH": "2025-12-09T20:00:01.999008", "MEAN_MOTION": 15.54428545, "ECCENTRICITY": 0.0001442, "INCLINATION": 42.9995, "RA_OF_ASC_NODE": 209.6206, "ARG_OF_PERICENTER": 267.4405, "MEAN_ANOMALY": 122.5545, "EPHEMERIS_TYPE": 0, "CLASSIFICATION_TYPE": "U", "NORAD_CAT_ID": 66614, "ELEMENT_SET_NO": 999, "REV_AT_EPOCH": 377, "BSTAR": -0.034528, "MEAN_MOTION_DOT": -0.0207326, "MEAN_MOTION_DDOT": 0}, "tle": {"line1": "1 66614U 25270AC  25343.83335647 -.02073260  00000+0 -34528-1 0  9999", "line2": "2 66614  42.9995 209.6206 0001442 267.4405 122.5545 15.54428545  3771"}}, "geometry": {"type": "Point", "coordinates": [86.15674582892522, -38.73410814049643]}}, {"type": "Feature", "properties": {"norad_id": 66615, "name": "STARLINK-35988", "group": "last-30-days", "lat": -38.04694783970602, "lon": 83.8801262835022, "alt_km": 412.17503090008995, "timestamp": "2025-12-10T07:43:53.549946+00:00", "meta": {"OBJECT_NAME": "STARLINK-35988", "OBJECT_ID": "2025-270AD", "EPOCH": "2025-12-09T20:00:01.999008", "MEAN_MOTION": 15.54437772, "ECCENTRICITY": 0.0001586, "INCLINATION": 42.9994, "RA_OF_ASC_NODE": 209.6261, "ARG_OF_PERICENTER": 262.6782, "MEAN_ANOMALY": 125.397, "EPHEMERIS_TYPE": 0, "CLASSIFICATION_TYPE": "U", "NORAD_CAT_ID": 66615, "ELEMENT_SET_NO": 999, "REV_AT_EPOCH": 377, "BSTAR": -0.034807, "MEAN_MOTION_DOT": -0.02088902, "MEAN_MOTION_DDOT": 0}, "tle": {"line1": "1 66615U 25270AD  25343.83335647 -.02088902  00000+0 -34807-1 0  9999", "line2": "2 66615  42.9994 209.6261 0001586 262.6782 125.3970 15.54437772  3771"}}, "geometry": {"type": "Point", "coordinates": [83.8801262835022, -38.04694783970602]}}, {"type": "Feature", "properties": {"norad_id": 66616, "name": "STARLINK-35391", "group": "last-30-days", "lat": -39.375229389674864, "lon": 88.47377734169712, "alt_km": 412.3776640862634, "timestamp": "2025-12-10T07:43:53.549956+00:00", "meta": {"OBJECT_NAME": "STARLINK-35391", "OBJECT_ID": "2025-270AE", "EPOCH": "2025-12-09T20:00:01.999008", "MEAN_MOTION": 15.54441616, "ECCENTRICITY": 0.0001457, "INCLINATION": 42.9997, "RA_OF_ASC_NODE": 209.6162, "ARG_OF_PERICENTER": 272.0546, "MEAN_ANOMALY": 119.8529, "EPHEMERIS_TYPE": 0, "CLASSIFICATION_TYPE": "U", "NORAD_CAT_ID": 66616, "ELEMENT_SET_NO": 999, "REV_AT_EPOCH": 404, "BSTAR": -0.034842, "MEAN_MOTION_DOT": -0.02090972, "MEAN_MOTION_DDOT": 0}, "tle": {"line1": "1 66616U 25270AE  25343.83335647 -.02090972  00000+0 -34842-1 0  9999", "line2": "2 66616  42.9997 209.6162 0001457 272.0546 119.8529 15.54441616  4046"}}, "geometry": {"type": "Point", "coordinates": [88.47377734169712, -39.375229389674864]}}, {"type": "Feature", "properties": {"norad_id": 66617, "name": "STARLINK-35940", "group": "last-30-days", "lat": -35.11554880001893, "lon": 50.712061822646625, "alt_km": 390.9367006691291, "timestamp": "2025-12-10T07:43:53.549967+00:00", "meta": {"OBJECT_NAME": "STARLINK-35940", "OBJECT_ID": "2025-271A", "EPOCH": "2025-12-09T20:00:01.999008", "MEAN_MOTION": 15.62629313, "ECCENTRICITY": 7.3e-05, "INCLINATION": 53.1593, "RA_OF_ASC_NODE": 201.2743, "ARG_OF_PERICENTER": 97.8165, "MEAN_ANOMALY": 258.7416, "EPHEMERIS_TYPE": 0, "CLASSIFICATION_TYPE": "U", "NORAD_CAT_ID": 66617, "ELEMENT_SET_NO": 999, "REV_AT_EPOCH": 377, "BSTAR": -0.025367, "MEAN_MOTION_DOT": -0.02027475, "MEAN_MOTION_DDOT": 0}, "tle": {"line1": "1 66617U 25271A   25343.83335647 -.02027475  00000+0 -25367-1 0  9991", "line2": "2 66617  53.1593 201.2743 0000730  97.8165 258.7416 15.62629313  3777"}}, "geometry": {"type": "Point", "coordinates": [50.712061822646625, -35.11554880001893]}}, {"type": "Feature", "properties": {"norad_id": 66618, "name": "STARLINK-35970", "group": "last-30-days", "lat": -52.17001819864877, "lon": 123.8673968907238, "alt_km": 391.82289016358936, "timestamp": "2025-12-10T07:43:53.549978+00:00", "meta": {"OBJECT_NAME": "STARLINK-35970", "OBJECT_ID": "2025-271B", "EPOCH": "2025-12-09T20:00:01.999008", "MEAN_MOTION": 15.62625888, "ECCENTRICITY": 8.17e-05, "INCLINATION": 53.159, "RA_OF_ASC_NODE": 201.1615, "ARG_OF_PERICENTER": 96.9646, "MEAN_ANOMALY": 312.9175, "EPHEMERIS_TYPE": 0, "CLASSIFICATION_TYPE": "U", "NORAD_CAT_ID": 66618, "ELEMENT_SET_NO": 999, "REV_AT_EPOCH": 377, "BSTAR": -0.025321, "MEAN_MOTION_DOT": -0.02024092, "MEAN_MOTION_DDOT": 0}, "tle": {"line1": "1 66618U 25271B   25343.83335647 -.02024092  00000+0 -25321-1 0  9994", "line2": "2 66618  53.1590 201.1615 0000817  96.9646 312.9175 15.62625888  3770"}}, "geometry": {"type": "Point", "coordinates": [123.8673968907238, -52.17001819864877]}}]}